     2.10           N: GPS NAV DATA                         RINEX VERSION / TYPE
Convert                                 03-Nov-17 10:59     PGM / RUN BY / DATE 
    0.1211D-07 -0.7451D-08 -0.1192D-06  0.5960D-07          ION ALPHA           
    0.9626D+05 -0.3277D+05 -0.1966D+06  0.1966D+06          ION BETA            
    -.186264514923D-08 -.115463194561D-13    61440     1974 DELTA-UTC: A0,A1,T,W
    18                                                      LEAP SECONDS        
                                                            END OF HEADER       
03 17 11 03 12 00 00.0 -.473293475807D-04  .522959453519D-11  .000000000000D+00
     .410000000000D+02 -.621250000000D+02  .492949104737D-08  .724306089982D+00
    -.323168933392D-05  .109057477675D-02  .643171370029D-05  .515362230110D+04
     .475200000000D+06  .558793544769D-08  .205109656253D+01 -.167638063431D-07
     .959982046260D+00  .253156250000D+03  .571294480503D+00 -.833248993879D-08
    -.627883296717D-09  .100000000000D+01  .197300000000D+04  .000000000000D+00
     .000000000000D+00  .000000000000D+00  .232830643654D-08  .410000000000D+02
     .471606000000D+06  .000000000000D+00                                      
01 17 11 03 12 00 00.0 -.805873423815D-05 -.238742359215D-11  .000000000000D+00
     .430000000000D+02  .536250000000D+02  .482627246219D-08  .177754211692D+01
     .281073153019D-05  .710492231883D-02  .610202550888D-05  .515367345810D+04
     .475200000000D+06 -.232830643654D-06  .100799067275D+01  .126659870148D-06
     .968769994119D+00  .266281250000D+03  .632327658299D+00 -.828498796015D-08
     .523236080597D-09  .100000000000D+01  .197300000000D+04  .000000000000D+00
     .000000000000D+00  .000000000000D+00  .558793544769D-08  .430000000000D+02
     .471606000000D+06  .000000000000D+00                                      
22 17 11 03 12 00 00.0 -.176596455276D-03 -.127329258248D-10  .000000000000D+00
     .470000000000D+02 -.671875000000D+02  .577524056195D-08 -.295827679704D+01
    -.352226197720D-05  .716218154412D-02  .527128577232D-05  .515368008614D+04
     .475200000000D+06  .141561031342D-06  .199917103578D+01 -.745058059692D-08
     .923854264638D+00  .254875000000D+03 -.166222080553D+01 -.865714631918D-08
    -.546808491054D-09  .100000000000D+01  .197300000000D+04  .000000000000D+00
     .000000000000D+00  .000000000000D+00 -.176951289177D-07  .470000000000D+02
     .471606000000D+06  .000000000000D+00                                      
08 17 11 03 11 59 44.0 -.793035142124D-04 -.136424205266D-11  .000000000000D+00
     .420000000000D+02 -.443437500000D+02  .410445668138D-08 -.178727665909D+01
    -.230781733990D-05  .279720826074D-02  .135973095894D-04  .515371706963D+04
     .475184000000D+06 -.521540641785D-07 -.553539952247D-01 -.428408384323D-07
     .968344940345D+00  .125406250000D+03 -.633293432928D+00 -.773460789175D-08
     .228938107620D-09  .100000000000D+01  .197300000000D+04  .000000000000D+00
     .000000000000D+00  .000000000000D+00  .558793544769D-08  .420000000000D+02
     .469716000000D+06  .000000000000D+00                                      
10 17 11 03 12 00 00.0  .102994963527D-03  .807176547823D-11  .000000000000D+00
     .830000000000D+02 -.652187500000D+02  .495663503517D-08 -.202960376949D+00
    -.359863042831D-05  .291017233394D-02  .648945569992D-05  .515366284370D+04
     .475200000000D+06  .614672899246D-07  .204749907142D+01  .298023223877D-07
     .960113262697D+00  .254062500000D+03 -.288647676162D+01 -.837463455143D-08
    -.736816405647D-09  .100000000000D+01  .197300000000D+04  .000000000000D+00
     .000000000000D+00  .000000000000D+00  .186264514923D-08  .830000000000D+02
     .469836000000D+06  .000000000000D+00                                      
11 17 11 03 12 00 00.0 -.724627636373D-03 -.193267624127D-11  .000000000000D+00
     .400000000000D+02  .510937500000D+02  .606596695759D-08  .114873492855D+01
     .247918069363D-05  .169782402227D-01  .933185219765D-05  .515373749542D+04
     .475200000000D+06 -.219792127609D-06  .594754086444D+00 -.417232513428D-06
     .902898472248D+00  .170437500000D+03  .171490323146D+01 -.890608525991D-08
     .657527388655D-09  .100000000000D+01  .197300000000D+04  .000000000000D+00
     .000000000000D+00  .000000000000D+00 -.121071934700D-07  .400000000000D+02
     .471576000000D+06  .000000000000D+00                                      
14 17 11 03 12 00 00.0 -.877361744642D-04 -.909494701773D-12  .000000000000D+00
     .123000000000D+03  .665000000000D+02  .392552065655D-08 -.261854500800D+01
     .354461371899D-05  .927982165013D-02  .142771750689D-04  .515372175980D+04
     .475200000000D+06  .521540641785D-07 -.310914376276D+01 -.707805156708D-07
     .962107416070D+00  .103656250000D+03 -.195021708772D+01 -.755067165864D-08
     .357157734196D-11  .100000000000D+01  .197300000000D+04  .000000000000D+00
     .000000000000D+00  .000000000000D+00 -.977888703346D-08  .123000000000D+03
     .470916000000D+06  .000000000000D+00                                      
16 17 11 03 10 00 00.0  .366233289242D-04 -.227373675443D-12  .000000000000D+00
     .130000000000D+03 -.113593750000D+03  .408552732147D-08 -.249758226171D+01
    -.607781112194D-05  .936399539933D-02  .591762363911D-05  .515378863335D+04
     .468000000000D+06 -.260770320892D-07 -.101161259606D+01 -.221654772758D-06
     .988524713211D+00  .282093750000D+03  .456959096901D+00 -.796211736843D-08
    -.323942064916D-09  .100000000000D+01  .197300000000D+04  .000000000000D+00
     .000000000000D+00  .000000000000D+00 -.107102096081D-07  .130000000000D+03
     .461016000000D+06  .000000000000D+00                                      
17 17 11 03 12 00 00.0 -.146986916661D-03  .227373675443D-11  .000000000000D+00
     .740000000000D+02 -.205937500000D+02  .379515808357D-08 -.231305398986D+01
    -.108964741230D-05  .120637898799D-01  .133588910103D-04  .515371137047D+04
     .475200000000D+06  .143423676491D-06  .433671677880D-02  .745058059692D-08
     .981672593644D+00  .129312500000D+03 -.183586718465D+01 -.737137847607D-08
     .335013954676D-09  .100000000000D+01  .197300000000D+04  .000000000000D+00
     .000000000000D+00  .000000000000D+00 -.111758708954D-07  .740000000000D+02
     .471576000000D+06  .000000000000D+00                                      
21 17 11 03 10 00 00.0 -.465515535325D-03  .341060513165D-11  .000000000000D+00
     .480000000000D+02  .622500000000D+02  .552022993973D-08 -.953147563633D+00
     .351667404175D-05  .240399085451D-01  .658817589283D-05  .515356837463D+04
     .468000000000D+06 -.420957803726D-06  .959535235968D+00  .290572643280D-06
     .941246230592D+00  .247187500000D+03 -.162794614320D+01 -.894930134575D-08
     .495377777330D-09  .100000000000D+01  .197300000000D+04  .000000000000D+00
     .000000000000D+00  .000000000000D+00 -.977888703346D-08  .480000000000D+02
     .463716000000D+06  .000000000000D+00                                      
27 17 11 03 12 00 00.0  .344019383192D-03  .386535248253D-11  .000000000000D+00
     .410000000000D+02 -.492187500000D+02  .390194824609D-08 -.226033391427D+01
    -.268593430519D-05  .502001494169D-02  .135712325573D-04  .515367768860D+04
     .475200000000D+06  .167638063431D-07 -.485158553030D-01 -.949949026108D-07
     .976499890866D+00  .127125000000D+03  .377251892707D+00 -.758817322073D-08
     .266082511976D-09  .100000000000D+01  .197300000000D+04  .000000000000D+00
     .000000000000D+00  .000000000000D+00  .186264514923D-08  .410000000000D+02
     .469416000000D+06  .000000000000D+00                                      
28 17 11 03 12 00 00.0  .659431796521D-03  .329691829393D-11  .000000000000D+00
     .720000000000D+02 -.106281250000D+03  .414695845175D-08 -.139691807515D+01
    -.506639480591D-05  .199843671871D-01  .600889325142D-05  .515365961838D+04
     .475200000000D+06 -.186264514923D-06 -.100725221804D+01  .497326254845D-06
     .987352058559D+00  .277468750000D+03 -.155635375876D+01 -.812748139937D-08
    -.387873299337D-09  .100000000000D+01  .197300000000D+04  .000000000000D+00
     .000000000000D+00  .000000000000D+00 -.111758708954D-07  .720000000000D+02
     .469176000000D+06  .000000000000D+00                                      
31 17 11 03 12 00 00.0  .164577271789D-03 -.250111042988D-11  .000000000000D+00
     .390000000000D+02  .970625000000D+02  .464447917549D-08  .907444414108D+00
     .512227416039D-05  .869464653078D-02  .329129397869D-05  .515354655838D+04
     .475200000000D+06  .117346644402D-06 -.210749101289D+01  .633299350739D-07
     .965311357344D+00  .313750000000D+03 -.230288786784D+00 -.846963850873D-08
     .401088135502D-09  .100000000000D+01  .197300000000D+04  .000000000000D+00
     .000000000000D+00  .000000000000D+00 -.135041773319D-07  .390000000000D+02
     .471576000000D+06  .000000000000D+00                                      
32 17 11 03 12 00 00.0 -.519972760230D-03 -.363797880709D-11  .000000000000D+00
     .400000000000D+02  .454375000000D+02  .408338437506D-08 -.163116503696D+01
     .245496630669D-05  .147919671144D-02  .146515667439D-04  .515361379433D+04
     .475200000000D+06  .558793544769D-08  .308998038734D+01 -.132247805595D-06
     .958085741625D+00  .989375000000D+02 -.260991245568D+01 -.774032241550D-08
    -.182150444440D-09  .100000000000D+01  .197300000000D+04  .000000000000D+00
     .000000000000D+00  .000000000000D+00  .465661287308D-09  .400000000000D+02
     .471006000000D+06  .000000000000D+00                                      
19 17 11 03 12 00 00.0 -.477693974972D-03  .216004991671D-11  .000000000000D+00
     .123000000000D+03 -.173750000000D+02  .392266339468D-08  .668376218518D+00
    -.843778252602D-06  .987038318999D-02  .135526061058D-04  .515368788147D+04
     .475200000000D+06 -.162050127983D-06  .517541912441D-01  .316649675369D-07
     .979034403753D+00  .131593750000D+03  .108819160595D+01 -.775639451354D-08
     .221794952936D-09  .100000000000D+01  .197300000000D+04  .000000000000D+00
     .000000000000D+00  .000000000000D+00 -.153668224812D-07  .123000000000D+03
     .472686000000D+06  .000000000000D+00                                      
23 17 11 03 12 00 00.0 -.218496192247D-03 -.227373675443D-12  .000000000000D+00
     .490000000000D+02  .440312500000D+02  .446197157331D-08  .260518905016D+01
     .212527811527D-05  .118598616682D-01  .133980065584D-04  .515366547012D+04
     .475200000000D+06 -.428408384323D-07  .308631960747D+01 -.186264514923D-06
     .944482206846D+00  .110656250000D+03 -.241648012270D+01 -.779711049523D-08
    -.149649090628D-09  .100000000000D+01  .197300000000D+04  .000000000000D+00
     .000000000000D+00  .000000000000D+00 -.204890966415D-07  .490000000000D+02
     .472686000000D+06  .000000000000D+00                                      
